{
  "norad_id": 62929,
  "name": "KINEIS-2C",
  "history": [
    {
      "epoch": "2026-03-28T03:27:54.221184",
      "apogee_km": 654.1487125494323,
      "perigee_km": 653.2781694648356,
      "latitude_deg": 84.66924161874607,
      "longitude_deg": 126.76024575997144,
      "semi_major_axis_km": 7031.850441007134,
      "eccentricity": 6.19e-05,
      "inclination_deg": 98.0287,
      "raan_deg": 142.0783,
      "arg_perigee_deg": 136.6903,
      "mean_anomaly_deg": 223.4353,
      "mean_motion_rev_day": 14.72306821
    }
  ]
}